NORAD_CAT_ID,OBJECT_NAME,OBJECT_TYPE,EPOCH,MEAN_MOTION,ECCENTRICITY,INCLINATION,RA_OF_ASC_NODE,ARG_OF_PERICENTER,MEAN_ANOMALY,BSTAR,MEAN_MOTION_DOT,MEAN_MOTION_DDOT,TLE_LINE0,TLE_LINE1,TLE_LINE2,SEMIMAJOR_AXIS,PERIOD,APOGEE,PERIGEE,DECAYED
52588.0,STARLINK-3917,PAYLOAD,2023-02-26 06:06:10,15.08853503,0.0001082,53.2159,50.5977,91.0674,269.0442,0.00034991,5.287e-05,0.0,0 STARLINK-3917,1 52588U 22051BE  23057.25428857  .00005287  00000-0  34991-3 0  9997,2 52588  53.2159  50.5977 0001082  91.0674 269.0442 15.08853503 44470,6917.839,95.437,540.453,538.956,0.0
52588.0,STARLINK-3917,PAYLOAD,2023-02-26 10:52:19,15.08862915,0.0001367,53.2161,49.7048,97.8538,262.2609,0.00083005,0.00012955,0.0,0 STARLINK-3917,1 52588U 22051BE  23057.45300726  .00012955  00000-0  83005-3 0  9993,2 52588  53.2161  49.7048 0001367  97.8538 262.2609 15.08862915 44434,6917.81,95.436,540.621,538.73,0.0
52588.0,STARLINK-3917,PAYLOAD,2023-02-27 04:21:34,15.08851441,0.000152,53.2158,46.434,100.6507,259.4656,0.00040647,6.189e-05,0.0,0 STARLINK-3917,1 52588U 22051BE  23058.18165109  .00006189  00000-0  40647-3 0  9995,2 52588  53.2158  46.4340 0001520 100.6507 259.4656 15.08851441 44611,6917.845,95.437,540.762,538.659,0.0
52588.0,STARLINK-3917,PAYLOAD,2023-02-27 07:32:20,15.08858162,0.0001455,53.2169,45.8392,98.3758,261.7399,0.00054242,8.359e-05,0.0,0 STARLINK-3917,1 52588U 22051BE  23058.31412866  .00008359  00000-0  54242-3 0  9992,2 52588  53.2169  45.8392 0001455  98.3758 261.7399 15.08858162 44562,6917.825,95.436,540.696,538.683,0.0
52588.0,STARLINK-3917,PAYLOAD,2023-02-27 15:29:16,15.08860541,2.51e-05,53.2165,44.3518,135.6624,224.4389,0.00067739,0.00010515,0.0,0 STARLINK-3917,1 52588U 22051BE  23058.64532466  .00010515  00000-0  67739-3 0  9999,2 52588  53.2165  44.3518 0000251 135.6624 224.4389 15.08860541 44617,6917.818,95.436,539.856,539.509,0.0
52588.0,STARLINK-3917,PAYLOAD,2023-02-28 05:47:44,15.08878744,0.0001439,53.2167,41.6767,94.7821,265.3335,0.0018545,0.00029381,0.0,0 STARLINK-3917,1 52588U 22051BE  23059.24148366  .00029381  00000-0  18545-2 0  9999,2 52588  53.2167  41.6767 0001439  94.7821 265.3335 15.08878744 44774,6917.762,95.435,540.622,538.632,0.0
52588.0,STARLINK-3917,PAYLOAD,2023-02-28 08:58:30,15.08892323,0.000116,53.2164,41.0818,97.9504,262.162,0.0027594,0.00043965,0.0,0 STARLINK-3917,1 52588U 22051BE  23059.37395973  .00043965  00000-0  27594-2 0  9999,2 52588  53.2164  41.0818 0001160  97.9504 262.1620 15.08892323 44722,6917.72,95.434,540.388,538.783,0.0
52588.0,STARLINK-3917,PAYLOAD,2023-02-28 23:16:59,15.08810967,0.000134,53.2166,38.4056,133.9863,226.124,-0.0005699,-9.339e-05,0.0,0 STARLINK-3917,1 52588U 22051BE  23059.97013580 -.00009339  00000-0 -56990-3 0  9998,2 52588  53.2166  38.4056 0001340 133.9863 226.1240 15.08810967 44886,6917.969,95.439,540.761,538.907,0.0
52588.0,STARLINK-3917,PAYLOAD,2023-03-01 15:10:52,15.08824104,0.0001422,53.216,35.432,130.7487,229.3629,0.0013945,0.00021965,0.0,0 STARLINK-3917,1 52588U 22051BE  23060.63255215  .00021965  00000-0  13945-2 0  9995,2 52588  53.2160  35.4320 0001422 130.7487 229.3629 15.08824104 44984,6917.929,95.439,540.778,538.81,0.0
52588.0,STARLINK-3917,PAYLOAD,2023-03-02 10:15:29,15.08878544,0.0001448,53.2157,31.8638,133.3923,226.7189,0.0017371,0.00027495,0.0,0 STARLINK-3917,1 52588U 22051BE  23061.42742294  .00027495  00000-0  17371-2 0  9992,2 52588  53.2157  31.8638 0001448 133.3923 226.7189 15.08878544 45030,6917.763,95.435,540.629,538.626,0.0
52588.0,STARLINK-3917,PAYLOAD,2023-03-03 10:06:15,15.08902962,0.0001336,53.2155,27.4027,105.8703,254.2437,0.0025734,0.00040977,0.0,0 STARLINK-3917,1 52588U 22051BE  23062.42100726  .00040977  00000-0  25734-2 0  9993,2 52588  53.2155  27.4027 0001336 105.8703 254.2437 15.08902962 45255,6917.688,95.434,540.477,538.629,0.0
52588.0,STARLINK-3917,PAYLOAD,2023-03-04 08:21:37,15.08910551,0.0001114,53.2161,23.239,113.3371,246.7738,0.0037609,0.00060194,0.0,0 STARLINK-3917,1 52588U 22051BE  23063.34835407  .00060194  00000-0  37609-2 0  9993,2 52588  53.2161  23.2390 0001114 113.3371 246.7738 15.08910551 45396,6917.665,95.433,540.3,538.759,0.0
52588.0,STARLINK-3917,PAYLOAD,2023-03-05 08:12:26,15.08859328,0.0001174,53.2155,18.7772,90.365,269.7477,0.0026348,0.00041917,0.0,0 STARLINK-3917,1 52588U 22051BE  23064.34197026  .00041917  00000-0  26348-2 0  9992,2 52588  53.2155  18.7772 0001174  90.3650 269.7477 15.08859328 45548,6917.821,95.436,540.498,538.874,0.0
52588.0,STARLINK-3917,PAYLOAD,2023-03-06 03:17:03,15.08875112,0.0001081,53.2168,15.2106,100.0693,260.0422,0.0027839,0.00044339,0.0,0 STARLINK-3917,1 52588U 22051BE  23065.13685057  .00044339  00000-0  27839-2 0  9993,2 52588  53.2168  15.2106 0001081 100.0693 260.0422 15.08875112 45664,6917.773,95.435,540.386,538.89,0.0
52588.0,STARLINK-3917,PAYLOAD,2023-03-06 06:27:49,15.08891501,0.0001073,53.2172,14.6153,104.7231,255.3881,0.0034802,0.00055615,0.0,0 STARLINK-3917,1 52588U 22051BE  23065.26932601  .00055615  00000-0  34802-2 0  9994,2 52588  53.2172  14.6153 0001073 104.7231 255.3881 15.08891501 45682,6917.723,95.434,540.33,538.846,0.0
52588.0,STARLINK-3917,PAYLOAD,2023-03-07 03:07:51,15.08843019,0.0001264,53.2164,10.749,129.7163,230.3941,0.0022177,0.00035186,0.0,0 STARLINK-3917,1 52588U 22051BE  23066.13045925  .00035186  00000-0  22177-2 0  9998,2 52588  53.2164  10.7490 0001264 129.7163 230.3941 15.08843019 45813,6917.871,95.437,540.611,538.862,0.0
52588.0,STARLINK-3917,PAYLOAD,2023-03-07 07:54:00,15.08865605,0.0001298,53.2165,9.8568,129.8024,230.3082,0.0028115,0.00044773,0.0,0 STARLINK-3917,1 52588U 22051BE  23066.32917692  .00044773  00000-0  28115-2 0  9998,2 52588  53.2165   9.8568 0001298 129.8024 230.3082 15.08865605 45847,6917.802,95.436,540.565,538.769,0.0
52588.0,STARLINK-3917,PAYLOAD,2023-03-08 04:34:01,15.08891918,0.0001067,53.2175,5.9947,96.6558,263.4556,0.0030352,0.00048418,0.0,0 STARLINK-3917,1 52588U 22051BE  23067.19029567  .00048418  00000-0  30352-2 0  9995,2 52588  53.2175   5.9947 0001067  96.6558 263.4556 15.08891918 45976,6917.722,95.434,540.325,538.849,0.0
52588.0,STARLINK-3917,PAYLOAD,2023-03-08 23:38:39,15.08864406,6.13e-05,53.2169,2.4252,80.4891,279.617,0.0051874,0.00083302,0.0,0 STARLINK-3917,1 52588U 22051BE  23067.98518197  .00083302  00000-0  51874-2 0  9997,2 52588  53.2169   2.4252 0000613  80.4891 279.6170 15.08864406 46094,6917.806,95.436,540.095,539.247,0.0
52588.0,STARLINK-3917,PAYLOAD,2023-03-09 02:49:25,15.08856498,0.0001176,53.2173,1.8317,78.6299,281.4826,0.0018869,0.00029883,0.0,0 STARLINK-3917,1 52588U 22051BE  23068.11766129  .00029883  00000-0  18869-2 0  9994,2 52588  53.2173   1.8317 0001176  78.6299 281.4826 15.08856498 46114,6917.83,95.437,540.508,538.881,0.0
52588.0,STARLINK-3917,PAYLOAD,2023-03-10 02:40:12,15.08883889,0.0001363,53.2159,357.3716,72.0471,288.067,0.0024555,0.00039055,0.0,0 STARLINK-3917,1 52588U 22051BE  23069.11125763  .00039055  00000-0  24555-2 0  9999,2 52588  53.2159 357.3716 0001363  72.0471 288.0670 15.08883889 46268,6917.746,95.435,540.554,538.668,0.0
52588.0,STARLINK-3917,PAYLOAD,2023-03-10 18:34:04,15.08805619,0.0001969,53.2156,354.3976,65.4781,294.6416,-0.00049845,-8.205e-05,0.0,0 STARLINK-3917,1 52588U 22051BE  23069.77366318 -.00008205  00000-0 -49845-3 0  9999,2 52588  53.2156 354.3976 0001969  65.4781 294.6416 15.08805619 46369,6917.985,95.44,541.213,538.488,0.0
52588.0,STARLINK-3917,PAYLOAD,2023-03-11 02:31:00,15.08813412,0.0001664,53.2156,352.9113,50.2914,309.8225,0.0021939,0.00034775,0.0,0 STARLINK-3917,1 52588U 22051BE  23070.10487227  .00034775  00000-0  21939-2 0  9993,2 52588  53.2156 352.9113 0001664  50.2914 309.8225 15.08813412 46411,6917.962,95.439,540.978,538.676,0.0
52588.0,STARLINK-3917,PAYLOAD,2023-03-12 00:46:24,15.08870718,0.0001683,53.2153,348.7472,54.2821,305.8328,0.0021424,0.00034002,0.0,0 STARLINK-3917,1 52588U 22051BE  23071.03223184  .00034002  00000-0  21424-2 0  9998,2 52588  53.2153 348.7472 0001683  54.2821 305.8328 15.08870718 46558,6917.786,95.436,540.816,538.487,0.0
52588.0,STARLINK-3917,PAYLOAD,2023-03-13 03:47:57,15.08874283,0.0001342,53.216,343.6902,76.3695,283.7446,0.0013483,0.00021255,0.0,0 STARLINK-3917,1 52588U 22051BE  23072.15830087  .00021255  00000-0  13483-2 0  9990,2 52588  53.2160 343.6902 0001342  76.3695 283.7446 15.08874283 46729,6917.776,95.435,540.569,538.712,0.0
52588.0,STARLINK-3917,PAYLOAD,2023-03-14 02:03:22,15.08831523,0.0001115,53.2157,339.5267,101.2459,258.8658,0.0012212,0.00019196,0.0,0 STARLINK-3917,1 52588U 22051BE  23073.08567390  .00019196  00000-0  12212-2 0  9997,2 52588  53.2157 339.5267 0001115 101.2459 258.8658 15.08831523 46860,6917.906,95.438,540.543,539.0,0.0
52588.0,STARLINK-3917,PAYLOAD,2023-03-15 03:29:31,15.08881534,0.0001041,53.2152,334.7676,81.7328,278.3782,0.0026688,0.00042491,0.0,0 STARLINK-3917,1 52588U 22051BE  23074.14550690  .00042491  00000-0  26688-2 0  9996,2 52588  53.2152 334.7676 0001041  81.7328 278.3782 15.08881534 47022,6917.753,95.435,540.339,538.898,0.0
52588.0,STARLINK-3917,PAYLOAD,2023-03-15 20:58:46,15.0884908,0.0001507,53.2162,331.5004,94.1544,265.962,0.0010776,0.00016908,0.0,0 STARLINK-3917,1 52588U 22051BE  23074.87414906  .00016908  00000-0  10776-2 0  9990,2 52588  53.2162 331.5004 0001507  94.1544 265.9620 15.08849080 47065,6917.853,95.437,540.76,538.675,0.0
52588.0,STARLINK-3917,PAYLOAD,2023-03-16 01:44:55,15.08855254,0.0001552,53.2165,330.6068,79.7951,280.3217,0.0014384,0.00022688,0.0,0 STARLINK-3917,1 52588U 22051BE  23075.07286820  .00022688  00000-0  14384-2 0  9996,2 52588  53.2165 330.6068 0001552  79.7951 280.3217 15.08855254 47163,6917.834,95.437,540.772,538.625,0.0
52588.0,STARLINK-3917,PAYLOAD,2023-03-16 06:31:05,15.08844312,0.0001363,53.216,329.7151,100.1852,259.9294,0.0013384,0.00021079,0.0,0 STARLINK-3917,1 52588U 22051BE  23075.27158689  .00021079  00000-0  13384-2 0  9991,2 52588  53.2160 329.7151 0001363 100.1852 259.9294 15.08844312 47192,6917.867,95.437,540.675,538.789,0.0
